{"type": "FeatureCollection", "features": [ {"type": "Feature", "properties": {"norad_id": 36402, "name": "COSMOS 2460 (732)", "group": "gnss", "lat": 15.94858871365372, "lon": 133.22643369049896, "alt_km": 19130.546050775338, "timestamp": "2025-12-14T11:29:50.302239+00:00", "meta": {"OBJECT_NAME": "COSMOS 2460 (732)", "OBJECT_ID": "2010-007C", "EPOCH": "2025-12-13T13:53:49.157952", "MEAN_MOTION": 2.13106108, "ECCENTRICITY": 0.00026771, "INCLINATION": 65.5289, "RA_OF_ASC_NODE": 320.7443, "ARG_OF_PERICENTER": 274.1475, "MEAN_ANOMALY": 277.7778, "EPHEMERIS_TYPE": 0, "CLASSIFICATION_TYPE": "U", "NORAD_CAT_ID": 36402, "ELEMENT_SET_NO": 999, "REV_AT_EPOCH": 12277, "BSTAR": 0, "MEAN_MOTION_DOT": -6.1e-07, "MEAN_MOTION_DDOT": 0}, "tle": {"line1": "1 36402U 10007C   25347.57904118 -.00000061  00000+0  00000+0 0  9995", "line2": "2 36402  65.5289 320.7443 0002677 274.1475 277.7778  2.13106108122773"}}, "geometry": {"type": "Point", "coordinates": [133.22643369049896, 15.94858871365372]}}, {"type": "Feature", "properties": {"norad_id": 36585, "name": "GPS BIIF-1  (PRN 25)", "group": "gnss", "lat": -1.3857339942887192, "lon": -144.98350569917432, "alt_km": 20047.658728961447, "timestamp": "2025-12-14T11:29:50.302251+00:00", "meta": {"OBJECT_NAME": "GPS BIIF-1  (PRN 25)", "OBJECT_ID": "2010-022A", "EPOCH": "2025-12-13T05:27:57.415104", "MEAN_MOTION": 2.00553278, "ECCENTRICITY": 0.01261295, "INCLINATION": 54.3, "RA_OF_ASC_NODE": 216.0542, "ARG_OF_PERICENTER": 65.0762, "MEAN_ANOMALY": 111.1577, "EPHEMERIS_TYPE": 0, "CLASSIFICATION_TYPE": "U", "NORAD_CAT_ID": 36585, "ELEMENT_SET_NO": 999, "REV_AT_EPOCH": 11386, "BSTAR": 0, "MEAN_MOTION_DOT": 3.5e-07, "MEAN_MOTION_DDOT": 0}, "tle": {"line1": "1 36585U 10022A   25347.22774786  .00000035  00000+0  00000+0 0  9992", "line2": "2 36585  54.3000 216.0542 0126129  65.0762 111.1577  2.00553278113862"}}, "geometry": {"type": "Point", "coordinates": [-144.98350569917432, -1.3857339942887192]}}, {"type": "Feature", "properties": {"norad_id": 36828, "name": "BEIDOU-2 IGSO-1 (C06)", "group": "gnss", "lat": -15.293493581548113, "lon": -4.016071416903314, "alt_km": 35580.949036894766, "timestamp": "2025-12-14T11:29:50.302262+00:00", "meta": {"OBJECT_NAME": "BEIDOU-2 IGSO-1 (C06)", "OBJECT_ID": "2010-036A", "EPOCH": "2025-12-13T10:31:52.529952", "MEAN_MOTION": 1.00275912, "ECCENTRICITY": 0.00512352, "INCLINATION": 54.2869, "RA_OF_ASC_NODE": 164.6409, "ARG_OF_PERICENTER": 215.8264, "MEAN_ANOMALY": 327.7653, "EPHEMERIS_TYPE": 0, "CLASSIFICATION_TYPE": "U", "NORAD_CAT_ID": 36828, "ELEMENT_SET_NO": 999, "REV_AT_EPOCH": 5623, "BSTAR": 0, "MEAN_MOTION_DOT": -3.2e-07, "MEAN_MOTION_DDOT": 0}, "tle": {"line1": "1 36828U 10036A   25347.43880243 -.00000032  00000+0  00000+0 0  9994", "line2": "2 36828  54.2869 164.6409 0051235 215.8264 327.7653  1.00275912 56233"}}, "geometry": {"type": "Point", "coordinates": [-4.016071416903314, -15.293493581548113]}}, {"type": "Feature", "properties": {"norad_id": 37210, "name": "BEIDOU-2 G4 (C04)", "group": "gnss", "lat": -0.7486637300875196, "lon": 55.99716265393609, "alt_km": 35827.491496655166, "timestamp": "2025-12-14T11:29:50.302276+00:00", "meta": {"OBJECT_NAME": "BEIDOU-2 G4 (C04)", "OBJECT_ID": "2010-057A", "EPOCH": "2025-12-13T14:12:38.887200", "MEAN_MOTION": 1.00271675, "ECCENTRICITY": 0.00107835, "INCLINATION": 3.187, "RA_OF_ASC_NODE": 69.937, "ARG_OF_PERICENTER": 191.3943, "MEAN_ANOMALY": 194.4276, "EPHEMERIS_TYPE": 0, "CLASSIFICATION_TYPE": "U", "NORAD_CAT_ID": 37210, "ELEMENT_SET_NO": 999, "REV_AT_EPOCH": 5543, "BSTAR": 0, "MEAN_MOTION_DOT": -9.7e-07, "MEAN_MOTION_DDOT": 0}, "tle": {"line1": "1 37210U 10057A   25347.59211675 -.00000097  00000+0  00000+0 0  9998", "line2": "2 37210   3.1870  69.9370 0010783 191.3943 194.4276  1.00271675 55436"}}, "geometry": {"type": "Point", "coordinates": [55.99716265393609, -0.7486637300875196]}}, {"type": "Feature", "properties": {"norad_id": 37256, "name": "BEIDOU-2 IGSO-2 (C07)", "group": "gnss", "lat": 47.91155788812659, "lon": 2.5608191747859586, "alt_km": 35901.55291034053, "timestamp": "2025-12-14T11:29:50.302287+00:00", "meta": {"OBJECT_NAME": "BEIDOU-2 IGSO-2 (C07)", "OBJECT_ID": "2010-068A", "EPOCH": "2025-12-03T17:22:36.027840", "MEAN_MOTION": 1.0028872, "ECCENTRICITY": 0.00492449, "INCLINATION": 47.9042, "RA_OF_ASC_NODE": 274.2614, "ARG_OF_PERICENTER": 216.1411, "MEAN_ANOMALY": 310.24, "EPHEMERIS_TYPE": 0, "CLASSIFICATION_TYPE": "U", "NORAD_CAT_ID": 37256, "ELEMENT_SET_NO": 999, "REV_AT_EPOCH": 5483, "BSTAR": 0, "MEAN_MOTION_DOT": -2.25e-06, "MEAN_MOTION_DDOT": 0}, "tle": {"line1": "1 37256U 10068A   25337.72402810 -.00000225  00000+0  00000+0 0  9990", "line2": "2 37256  47.9042 274.2614 0049244 216.1411 310.2400  1.00288720 54834"}}, "geometry": {"type": "Point", "coordinates": [2.5608191747859586, 47.91155788812659]}}, {"type": "Feature", "properties": {"norad_id": 37384, "name": "BEIDOU-2 IGSO-3 (C08)", "group": "gnss", "lat": -33.235397480442515, "lon": 21.687852309108685, "alt_km": 35894.66069687386, "timestamp": "2025-12-14T11:29:50.302301+00:00", "meta": {"OBJECT_NAME": "BEIDOU-2 IGSO-3 (C08)", "OBJECT_ID": "2011-013A", "EPOCH": "2025-12-13T13:58:02.786016", "MEAN_MOTION": 1.00270696, "ECCENTRICITY": 0.00354199, "INCLINATION": 62.1449, "RA_OF_ASC_NODE": 41.9072, "ARG_OF_PERICENTER": 187.5637, "MEAN_ANOMALY": 170.0888, "EPHEMERIS_TYPE": 0, "CLASSIFICATION_TYPE": "U", "NORAD_CAT_ID": 37384, "ELEMENT_SET_NO": 999, "REV_AT_EPOCH": 5379, "BSTAR": 0, "MEAN_MOTION_DOT": -1.97e-06, "MEAN_MOTION_DDOT": 0}, "tle": {"line1": "1 37384U 11013A   25347.58197669 -.00000197  00000+0  00000+0 0  9999", "line2": "2 37384  62.1449  41.9072 0035419 187.5637 170.0888  1.00270696 53792"}}, "geometry": {"type": "Point", "coordinates": [21.687852309108685, -33.235397480442515]}}, {"type": "Feature", "properties": {"norad_id": 37605, "name": "GSAT-8 (GAGAN/PRN 127)", "group": "gnss", "lat": -1.2156862882136659, "lon": -49.01438458333767, "alt_km": 35759.21373434548, "timestamp": "2025-12-14T11:29:50.302314+00:00", "meta": {"OBJECT_NAME": "GSAT-8 (GAGAN/PRN 127)", "OBJECT_ID": "2011-022A", "EPOCH": "2025-12-13T05:09:04.469184", "MEAN_MOTION": 1.00271619, "ECCENTRICITY": 0.00087123, "INCLINATION": 1.6512, "RA_OF_ASC_NODE": 84.1905, "ARG_OF_PERICENTER": 183.798, "MEAN_ANOMALY": 306.5095, "EPHEMERIS_TYPE": 0, "CLASSIFICATION_TYPE": "U", "NORAD_CAT_ID": 37605, "ELEMENT_SET_NO": 999, "REV_AT_EPOCH": 5135, "BSTAR": 0, "MEAN_MOTION_DOT": 9.8e-07, "MEAN_MOTION_DDOT": 0}, "tle": {"line1": "1 37605U 11022A   25347.21463506  .00000098  00000+0  00000+0 0  9990", "line2": "2 37605   1.6512  84.1905 0008712 183.7980 306.5095  1.00271619 51358"}}, "geometry": {"type": "Point", "coordinates": [-49.01438458333767, -1.2156862882136659]}}, {"type": "Feature", "properties": {"norad_id": 37763, "name": "BEIDOU-2 IGSO-4 (C09)", "group": "gnss", "lat": -1.4181807354715439, "lon": -11.66428815754122, "alt_km": 35362.17022007234, "timestamp": "2025-12-14T11:29:50.302327+00:00", "meta": {"OBJECT_NAME": "BEIDOU-2 IGSO-4 (C09)", "OBJECT_ID": "2011-038A", "EPOCH": "2025-12-10T12:04:03.489024", "MEAN_MOTION": 1.00284678, "ECCENTRICITY": 0.01490344, "INCLINATION": 54.5829, "RA_OF_ASC_NODE": 167.3658, "ARG_OF_PERICENTER": 230.2355, "MEAN_ANOMALY": 317.2212, "EPHEMERIS_TYPE": 0, "CLASSIFICATION_TYPE": "U", "NORAD_CAT_ID": 37763, "ELEMENT_SET_NO": 999, "REV_AT_EPOCH": 5275, "BSTAR": 0, "MEAN_MOTION_DOT": 3.6e-07, "MEAN_MOTION_DDOT": 0}, "tle": {"line1": "1 37763U 11038A   25344.50281816  .00000036  00000+0  00000+0 0  9995", "line2": "2 37763  54.5829 167.3658 0149034 230.2355 317.2212  1.00284678 52751"}}, "geometry": {"type": "Point", "coordinates": [-11.66428815754122, -1.4181807354715439]}}, {"type": "Feature", "properties": {"norad_id": 37846, "name": "GSAT0101 (GALILEO-PFM)", "group": "gnss", "lat": -51.33047309663603, "lon": -139.0876818206623, "alt_km": 23224.136454742773, "timestamp": "2025-12-14T11:29:50.302340+00:00", "meta": {"OBJECT_NAME": "GSAT0101 (GALILEO-PFM)", "OBJECT_ID": "2011-060A", "EPOCH": "2025-12-12T21:37:17.093856", "MEAN_MOTION": 1.70475751, "ECCENTRICITY": 0.00030259, "INCLINATION": 57.0527, "RA_OF_ASC_NODE": 346.8154, "ARG_OF_PERICENTER": 315.3436, "MEAN_ANOMALY": 44.6506, "EPHEMERIS_TYPE": 0, "CLASSIFICATION_TYPE": "U", "NORAD_CAT_ID": 37846, "ELEMENT_SET_NO": 999, "REV_AT_EPOCH": 8794, "BSTAR": 0, "MEAN_MOTION_DOT": -8.7e-07, "MEAN_MOTION_DDOT": 0}, "tle": {"line1": "1 37846U 11060A   25346.90089229 -.00000087  00000+0  00000+0 0  9999", "line2": "2 37846  57.0527 346.8154 0003025 315.3436  44.6506  1.70475751 87942"}}, "geometry": {"type": "Point", "coordinates": [-139.0876818206623, -51.33047309663603]}}, {"type": "Feature", "properties": {"norad_id": 37847, "name": "GSAT0102 (GALILEO-FM2)", "group": "gnss", "lat": -50.04007879620693, "lon": -63.94495095263709, "alt_km": 23213.349854021453, "timestamp": "2025-12-14T11:29:50.302352+00:00", "meta": {"OBJECT_NAME": "GSAT0102 (GALILEO-FM2)", "OBJECT_ID": "2011-060B", "EPOCH": "2025-12-12T05:47:25.345248", "MEAN_MOTION": 1.70475905, "ECCENTRICITY": 0.00049802, "INCLINATION": 57.0536, "RA_OF_ASC_NODE": 346.8337, "ARG_OF_PERICENTER": 309.4177, "MEAN_ANOMALY": 51.2149, "EPHEMERIS_TYPE": 0, "CLASSIFICATION_TYPE": "U", "NORAD_CAT_ID": 37847, "ELEMENT_SET_NO": 999, "REV_AT_EPOCH": 8794, "BSTAR": 0, "MEAN_MOTION_DOT": -8.7e-07, "MEAN_MOTION_DDOT": 0}, "tle": {"line1": "1 37847U 11060B   25346.24126557 -.00000087  00000+0  00000+0 0  9993", "line2": "2 37847  57.0536 346.8337 0004980 309.4177  51.2149  1.70475905 87941"}}, "geometry": {"type": "Point", "coordinates": [-63.94495095263709, -50.04007879620693]}}]}